NORAD_CAT_ID,OBJECT_NAME,OBJECT_TYPE,EPOCH,MEAN_MOTION,ECCENTRICITY,INCLINATION,RA_OF_ASC_NODE,ARG_OF_PERICENTER,MEAN_ANOMALY,BSTAR,MEAN_MOTION_DOT,MEAN_MOTION_DDOT,TLE_LINE0,TLE_LINE1,TLE_LINE2,SEMIMAJOR_AXIS,PERIOD,APOGEE,PERIGEE,DECAYED
52612.0,STARLINK-4002,PAYLOAD,2023-09-16 08:06:45,15.08837728,0.0001361,53.2187,23.4051,74.4075,285.7068,0.00032225,4.844e-05,0.0,0 STARLINK-4002,1 52612U 22052Q   23259.33803205  .00004844  00000-0  32225-3 0  9999,2 52612  53.2187  23.4051 0001361  74.4075 285.7068 15.08837728 74553,6917.887,95.438,540.694,538.811,0.0
52612.0,STARLINK-4002,PAYLOAD,2023-09-16 12:52:55,15.08837631,0.0001476,53.2191,22.5136,70.4122,289.7029,0.00027868,4.15e-05,0.0,0 STARLINK-4002,1 52612U 22052Q   23259.53675267  .00004150  00000-0  27868-3 0  9993,2 52612  53.2191  22.5136 0001476  70.4122 289.7029 15.08837631 74215,6917.888,95.438,540.774,538.732,0.0
52612.0,STARLINK-4002,PAYLOAD,2023-09-17 12:43:42,15.08847228,0.0001611,53.2206,18.0551,72.6841,287.4327,9.6556e-05,1.249e-05,0.0,0 STARLINK-4002,1 52612U 22052Q   23260.53034810  .00001249  00000-0  96556-4 0  9995,2 52612  53.2206  18.0551 0001611  72.6841 287.4327 15.08847228 74361,6917.858,95.437,540.838,538.609,0.0
52612.0,STARLINK-4002,PAYLOAD,2023-09-17 14:19:05,15.08849576,0.000157,53.2205,17.7577,74.4424,285.6742,0.00010857,1.441e-05,0.0,0 STARLINK-4002,1 52612U 22052Q   23260.59658656  .00001441  00000-0  10857-3 0  9994,2 52612  53.2205  17.7577 0001570  74.4424 285.6742 15.08849576 74746,6917.851,95.437,540.802,538.63,0.0
52612.0,STARLINK-4002,PAYLOAD,2023-09-18 10:59:06,15.08840803,0.0001372,53.221,13.8935,69.1649,290.949,7.1068e-05,8.43e-06,0.0,0 STARLINK-4002,1 52612U 22052Q   23261.45771066  .00000843  00000-0  71068-4 0  9998,2 52612  53.2210  13.8935 0001372  69.1649 290.9490 15.08840803 74874,6917.878,95.438,540.692,538.794,0.0
52612.0,STARLINK-4002,PAYLOAD,2023-09-18 14:09:52,15.08845063,0.0001499,53.2209,13.2979,87.0999,273.0165,7.4044e-05,8.91e-06,0.0,0 STARLINK-4002,1 52612U 22052Q   23261.59018690  .00000891  00000-0  74044-4 0  9990,2 52612  53.2209  13.2979 0001499  87.0999 273.0165 15.08845063 74527,6917.865,95.437,540.767,538.693,0.0
52612.0,STARLINK-4002,PAYLOAD,2023-09-19 14:00:38,15.08857114,0.0001779,53.2197,8.8365,107.149,252.9697,0.00023656,3.481e-05,0.0,0 STARLINK-4002,1 52612U 22052Q   23262.58377748  .00003481  00000-0  23656-3 0  9992,2 52612  53.2197   8.8365 0001779 107.1490 252.9697 15.08857114 75047,6917.828,95.436,540.924,538.462,0.0
52612.0,STARLINK-4002,PAYLOAD,2023-09-20 05:54:30,15.08840668,0.0001667,53.2192,5.8621,96.27,263.8482,4.6565e-05,4.53e-06,0.0,0 STARLINK-4002,1 52612U 22052Q   23263.24618600  .00000453  00000-0  46565-4 0  9992,2 52612  53.2192   5.8621 0001667  96.2700 263.8482 15.08840668 75142,6917.878,95.438,540.897,538.59,0.0
52612.0,STARLINK-4002,PAYLOAD,2023-09-20 13:51:26,15.08835679,0.0001355,53.2178,4.3722,67.4946,292.6189,-6.118e-05,-1.261e-05,0.0,0 STARLINK-4002,1 52612U 22052Q   23263.57738889 -.00001261  00000-0 -61180-4 0  9990,2 52612  53.2178   4.3722 0001355  67.4946 292.6189 15.08835679 74822,6917.894,95.438,540.696,538.821,0.0
52612.0,STARLINK-4002,PAYLOAD,2023-09-21 12:06:50,15.08840301,0.0001354,53.218,0.2131,82.4459,277.6687,-2.6258e-05,-7.06e-06,0.0,0 STARLINK-4002,1 52612U 22052Q   23264.50475057 -.00000706  00000-0 -26258-4 0  9999,2 52612  53.2180   0.2131 0001354  82.4459 277.6687 15.08840301 74968,6917.879,95.438,540.681,538.808,0.0
52612.0,STARLINK-4002,PAYLOAD,2023-09-21 23:14:32,15.08841839,0.0001332,53.2178,358.1322,84.2434,275.871,4.3763e-05,4.09e-06,0.0,0 STARLINK-4002,1 52612U 22052Q   23264.96843195  .00000409  00000-0  43763-4 0  9999,2 52612  53.2178 358.1322 0001332  84.2434 275.8710 15.08841839 75405,6917.875,95.437,540.661,538.818,0.0
52612.0,STARLINK-4002,PAYLOAD,2023-09-22 10:22:14,15.08837243,0.0001402,53.2177,356.0499,73.4994,286.6152,0.00025248,3.732e-05,0.0,0 STARLINK-4002,1 52612U 22052Q   23265.43211780  .00003732  00000-0  25248-3 0  9990,2 52612  53.2177 356.0499 0001402  73.4994 286.6152 15.08837243 75476,6917.889,95.438,540.724,538.784,0.0
52612.0,STARLINK-4002,PAYLOAD,2023-09-22 13:33:00,15.08847672,0.0001372,53.2169,355.4531,63.4484,296.6649,0.0003672,5.562e-05,0.0,0 STARLINK-4002,1 52612U 22052Q   23265.56459353  .00005562  00000-0  36720-3 0  9994,2 52612  53.2169 355.4531 0001372  63.4484 296.6649 15.08847672 75127,6917.857,95.437,540.671,538.773,0.0
52612.0,STARLINK-4002,PAYLOAD,2023-09-23 11:48:24,15.08846232,0.0001324,53.2161,351.2901,80.0756,280.0385,0.0001269,1.733e-05,0.0,0 STARLINK-4002,1 52612U 22052Q   23266.49195245  .00001733  00000-0  12690-3 0  9990,2 52612  53.2161 351.2901 0001324  80.0756 280.0385 15.08846232 75639,6917.861,95.437,540.642,538.81,0.0
52612.0,STARLINK-4002,PAYLOAD,2023-09-23 13:23:47,15.08852051,0.0001388,53.2172,350.9933,74.0903,286.0242,0.00022943,3.367e-05,0.0,0 STARLINK-4002,1 52612U 22052Q   23266.55818994  .00003367  00000-0  22943-3 0  9997,2 52612  53.2172 350.9933 0001388  74.0903 286.0242 15.08852051 75273,6917.844,95.437,540.669,538.748,0.0
52612.0,STARLINK-4002,PAYLOAD,2023-09-24 10:03:49,15.08838958,0.0001389,53.2168,347.1284,80.313,279.8019,5.3355e-05,5.61e-06,0.0,0 STARLINK-4002,1 52612U 22052Q   23267.41931725  .00000561  00000-0  53355-4 0  9996,2 52612  53.2168 347.1284 0001389  80.3130 279.8019 15.08838958 75775,6917.884,95.438,540.709,538.788,0.0
52612.0,STARLINK-4002,PAYLOAD,2023-09-24 11:39:11,15.08844122,0.0001471,53.2171,346.8292,89.3048,270.8113,4.2149e-05,3.83e-06,0.0,0 STARLINK-4002,1 52612U 22052Q   23267.48555478  .00000383  00000-0  42149-4 0  9991,2 52612  53.2171 346.8292 0001471  89.3048 270.8113 15.08844122 75410,6917.868,95.437,540.75,538.715,0.0
52612.0,STARLINK-4002,PAYLOAD,2023-09-25 11:29:59,15.0884941,0.0001515,53.2154,342.3705,81.3999,278.7164,0.00035939,5.438e-05,0.0,0 STARLINK-4002,1 52612U 22052Q   23268.47915570  .00005438  00000-0  35939-3 0  9998,2 52612  53.2154 342.3705 0001515  81.3999 278.7164 15.08849410 75561,6917.852,95.437,540.765,538.669,0.0
52612.0,STARLINK-4002,PAYLOAD,2023-09-26 09:45:23,15.08839682,0.0001691,53.2174,338.2077,88.4836,271.635,0.00013942,1.931e-05,0.0,0 STARLINK-4002,1 52612U 22052Q   23269.40652075  .00001931  00000-0  13942-3 0  9994,2 52612  53.2174 338.2077 0001691  88.4836 271.6350 15.08839682 76078,6917.881,95.438,540.916,538.577,0.0
52612.0,STARLINK-4002,PAYLOAD,2023-09-26 11:20:46,15.08841551,0.0001767,53.2177,337.9101,88.7359,271.3836,0.0001736,2.476e-05,0.0,0 STARLINK-4002,1 52612U 22052Q   23269.47276028  .00002476  00000-0  17360-3 0  9994,2 52612  53.2177 337.9101 0001767  88.7359 271.3836 15.08841551 75716,6917.876,95.437,540.963,538.518,0.0
52612.0,STARLINK-4002,PAYLOAD,2023-09-27 11:11:33,15.08849404,0.0001487,53.2174,333.4525,89.5172,270.5991,0.00021031,3.062e-05,0.0,0 STARLINK-4002,1 52612U 22052Q   23270.46635732  .00003062  00000-0  21031-3 0  9998,2 52612  53.2174 333.4525 0001487  89.5172 270.5991 15.08849404 75869,6917.852,95.437,540.745,538.688,0.0
52612.0,STARLINK-4002,PAYLOAD,2023-09-28 09:26:57,15.08833978,0.0001536,53.2166,329.2871,102.1662,257.9503,5.4357e-05,5.77e-06,0.0,0 STARLINK-4002,1 52612U 22052Q   23271.39372471  .00000577  00000-0  54357-4 0  9995,2 52612  53.2166 329.2871 0001536 102.1662 257.9503 15.08833978 76372,6917.899,95.438,540.826,538.701,0.0
52612.0,STARLINK-4002,PAYLOAD,2023-09-28 14:13:07,15.08836317,0.0001433,53.2156,328.3918,90.5535,269.5621,7.1875e-05,8.56e-06,0.0,0 STARLINK-4002,1 52612U 22052Q   23271.59244424  .00000856  00000-0  71875-4 0  9997,2 52612  53.2156 328.3918 0001433  90.5535 269.5621 15.08836317 76031,6917.892,95.438,540.748,538.765,0.0
52612.0,STARLINK-4002,PAYLOAD,2023-09-29 09:17:44,15.08839246,0.0001513,53.2157,324.8247,102.2332,257.8829,0.00010495,1.383e-05,0.0,0 STARLINK-4002,1 52612U 22052Q   23272.38732465  .00001383  00000-0  10495-3 0  9998,2 52612  53.2157 324.8247 0001513 102.2332 257.8829 15.08839246 76150,6917.883,95.438,540.794,538.701,0.0
52612.0,STARLINK-4002,PAYLOAD,2023-09-30 04:22:22,15.0884902,0.0001558,53.216,321.2552,105.2369,254.8795,0.0002759,4.107e-05,0.0,0 STARLINK-4002,1 52612U 22052Q   23273.18219925  .00004107  00000-0  27590-3 0  9999,2 52612  53.2160 321.2552 0001558 105.2369 254.8795 15.08849020 76279,6917.853,95.437,540.796,538.64,0.0
52612.0,STARLINK-4002,PAYLOAD,2023-09-30 09:08:31,15.08857031,0.0001566,53.2155,320.3634,105.3045,254.812,0.00040147,6.11e-05,0.0,0 STARLINK-4002,1 52612U 22052Q   23273.38091580  .00006110  00000-0  40147-3 0  9995,2 52612  53.2155 320.3634 0001566 105.3045 254.8120 15.08857031 76672,6917.828,95.436,540.777,538.61,0.0
52612.0,STARLINK-4002,PAYLOAD,2023-09-30 20:16:13,15.08851829,0.0001931,53.2158,318.28,91.2322,268.8892,0.00022096,3.231e-05,0.0,0 STARLINK-4002,1 52612U 22052Q   23273.84459578  .00003231  00000-0  22096-3 0  9995,2 52612  53.2158 318.2800 0001931  91.2322 268.8892 15.08851829 76741,6917.844,95.437,541.045,538.373,0.0
52612.0,STARLINK-4002,PAYLOAD,2023-10-01 10:34:41,15.08848481,0.0001625,53.2147,315.6065,84.7736,275.3441,0.00019261,2.779e-05,0.0,0 STARLINK-4002,1 52612U 22052Q   23274.44075515  .00002779  00000-0  19261-3 0  9993,2 52612  53.2147 315.6065 0001625  84.7736 275.3441 15.08848481 76832,6917.854,95.437,540.844,538.595,0.0
52612.0,STARLINK-4002,PAYLOAD,2023-10-01 20:07:00,15.08832393,0.0001759,53.2143,313.8237,78.0337,282.0852,0.0002203,3.219e-05,0.0,0 STARLINK-4002,1 52612U 22052Q   23274.83820080  .00003219  00000-0  22030-3 0  9999,2 52612  53.2143 313.8237 0001759  78.0337 282.0852 15.08832393 76522,6917.904,95.438,540.985,538.552,0.0
52612.0,STARLINK-4002,PAYLOAD,2023-10-02 02:28:33,15.08830856,0.0001923,53.2152,312.6353,78.9244,281.1964,8.069e-06,-1.6e-06,0.0,0 STARLINK-4002,1 52612U 22052Q   23275.10316384 -.00000160  00000-0  80690-5 0  9998,2 52612  53.2152 312.6353 0001923  78.9244 281.1964 15.08830856 76938,6917.908,95.438,541.104,538.443,0.0
